COSMOS 2242             
1 22626U 93024A   26063.82181060  .00002341  00000+0  20331-3 0  9990
2 22626  82.5153 271.3742 0015504 326.3462  33.6774 14.96525155779669
SL-16 R/B               
1 22803U 93059B   26063.32447448  .00000001  00000+0  24136-4 0  9994
2 22803  70.9921  22.4393 0018779 224.1741 135.7884 14.17232330678778
ARIANE 40 R/B           
1 22830U 93061H   26063.53111280  .00000294  00000+0  12339-3 0  9997
2 22830  98.4927 132.5203 0009638 302.1650  57.8598 14.32857947693364
COSMOS 2278             
1 23087U 94023A   26063.50561038  .00000308  00000+0  18561-3 0  9997
2 23087  71.0543 185.9417 0007692  23.7678 336.3799 14.14376329644075
SL-16 R/B               
1 23088U 94023B   26063.48371222 -.00000117  00000+0 -35787-4 0  9999
2 23088  70.9987  81.8212 0005641 290.7503  69.3015 14.15013380645350
SL-16 R/B               
1 23343U 94074B   26063.52970501  .00000689  00000+0  99054-4 0  9998
2 23343  97.7116  94.5563 0005440 230.3684 254.1669 14.79401252686489
SL-16 R/B               
1 23405U 94077B   26063.82067958 -.00000229  00000+0 -92501-4 0  9998
2 23405  70.9851   2.7312 0003366 219.1421 140.9459 14.15561904615548
ARIANE 40+ R/B          
1 23561U 95021B   26063.18078909  .00000433  00000+0  15201-3 0  9994
2 23561  98.4508 134.7378 0007401 151.3190 234.2081 14.39768032618455
SL-16 R/B               
1 23705U 95058B   26063.75677163  .00000059  00000+0  54418-4 0  9992
2 23705  71.0212 190.6105 0010993 134.4816 225.7207 14.15492918567156
SL-16 R/B               
1 24298U 96051B   26063.50030014  .00000105  00000+0  83516-4 0  9998
2 24298  70.7597 186.2217 0015547 155.7703 204.4151 14.12414119520911
ORBVIEW 2 (SEASTAR)     
1 24883U 97037A   26063.39933558  .00000508  00000+0  19297-3 0  9996
2 24883  98.8556 227.5711 0003172  82.5160 277.6384 14.35490740507712
SL-16 R/B               
1 25400U 98043G   26063.82016338  .00000087  00000+0  55371-4 0  9992
2 25400  98.8247  17.1493 0010442  33.8057 326.3786 14.26048432438298
SL-16 R/B               
1 25407U 98045B   26063.48759336 -.00000174  00000+0 -63820-4 0  9992
2 25407  71.0113 192.5126 0006434  15.8870 344.2454 14.16189328426365
ISS (ZARYA)             
1 25544U 98067A   26063.86671769  .00009014  00000+0  17477-3 0  9999
2 25544  51.6315  96.2009 0008177 157.5272 202.6076 15.48447334555585
CZ-4B R/B               
1 25732U 99025C   26063.60401388  .00000086  00000+0  62565-4 0  9992
2 25732  98.6637 108.0059 0037033   1.3021 151.9685 14.18264240387449
OKEAN-O                 
1 25860U 99039A   26063.17689204  .00001003  00000+0  13839-3 0  9995
2 25860  97.9453 123.1241 0001428  70.7706 289.3660 14.80325784433574
SL-16 R/B               
1 25861U 99039B   26063.16195114  .00000848  00000+0  11439-3 0  9997
2 25861  97.9977 122.2666 0013446 275.9477  84.0203 14.81723034436043
